{
  "type": "FeatureCollection",
  "features": [
    {
      "type": "Feature",
      "properties": {
        "norad_id": 34972,
        "name": "COSMOS 2251 DEB",
        "group": "cosmos-2251-debris",
        "lat": 64.07003799000397,
        "lon": 178.28326408535608,
        "alt_km": 641.3945247643505,
        "timestamp": "2025-12-20T14:38:02.364750+00:00",
        "meta_object_name": "COSMOS 2251 DEB",
        "meta_object_id": "1993-036AFB",
        "meta_epoch": "2025-12-20T04:37:09.782976",
        "meta_mean_motion": 14.72993078,
        "meta_eccentricity": 0.00330785,
        "meta_inclination": 73.988,
        "meta_ra_of_asc_node": 35.2981,
        "meta_arg_of_pericenter": 193.0312,
        "meta_mean_anomaly": 226.1658,
        "meta_ephemeris_type": 0,
        "meta_classification_type": "U",
        "meta_norad_cat_id": 34972,
        "meta_element_set_no": 999,
        "meta_rev_at_epoch": 87760,
        "meta_bstar": 0.00080503147,
        "meta_mean_motion_dot": 5.185e-05,
        "meta_mean_motion_ddot": 0,
        "tle_line1": "1 34972U 93036AFB 25354.19247434  .00005185  00000+0  80503-3 0  9996",
        "tle_line2": "2 34972  73.9880  35.2981 0033078 193.0312 226.1658 14.72993078877608"
      },
      "geometry": {
        "type": "Point",
        "coordinates": [
          178.28326408535608,
          64.07003799000397
        ]
      }
    },
    {
      "type": "Feature",
      "properties": {
        "norad_id": 34976,
        "name": "COSMOS 2251 DEB",
        "group": "cosmos-2251-debris",
        "lat": -48.217466747011784,
        "lon": -87.80968986748451,
        "alt_km": 616.1319125482969,
        "timestamp": "2025-12-20T14:38:02.364760+00:00",
        "meta_object_name": "COSMOS 2251 DEB",
        "meta_object_id": "1993-036AFF",
        "meta_epoch": "2025-12-20T03:45:07.153056",
        "meta_mean_motion": 14.7671662,
        "meta_eccentricity": 0.00478536,
        "meta_inclination": 74.058,
        "meta_ra_of_asc_node": 291.7337,
        "meta_arg_of_pericenter": 336.8692,
        "meta_mean_anomaly": 83.1588,
        "meta_ephemeris_type": 0,
        "meta_classification_type": "U",
        "meta_norad_cat_id": 34976,
        "meta_element_set_no": 999,
        "meta_rev_at_epoch": 88383,
        "meta_bstar": 0.0010232956,
        "meta_mean_motion_dot": 7.275e-05,
        "meta_mean_motion_ddot": 0,
        "tle_line1": "1 34976U 93036AFF 25354.15633279  .00007275  00000+0  10233-2 0  9996",
        "tle_line2": "2 34976  74.0580 291.7337 0047853 336.8692  83.1588 14.76716620883834"
      },
      "geometry": {
        "type": "Point",
        "coordinates": [
          -87.80968986748451,
          -48.217466747011784
        ]
      }
    },
    {
      "type": "Feature",
      "properties": {
        "norad_id": 34979,
        "name": "COSMOS 2251 DEB",
        "group": "cosmos-2251-debris",
        "lat": 69.45111845766988,
        "lon": -58.45262612003427,
        "alt_km": 634.8592199696277,
        "timestamp": "2025-12-20T14:38:02.364770+00:00",
        "meta_object_name": "COSMOS 2251 DEB",
        "meta_object_id": "1993-036AFJ",
        "meta_epoch": "2025-12-19T23:40:58.833984",
        "meta_mean_motion": 14.79473433,
        "meta_eccentricity": 0.004917,
        "meta_inclination": 74.04,
        "meta_ra_of_asc_node": 253.0039,
        "meta_arg_of_pericenter": 329.4569,
        "meta_mean_anomaly": 30.3744,
        "meta_ephemeris_type": 0,
        "meta_classification_type": "U",
        "meta_norad_cat_id": 34979,
        "meta_element_set_no": 999,
        "meta_rev_at_epoch": 88327,
        "meta_bstar": 0.0007282,
        "meta_mean_motion_dot": 5.522e-05,
        "meta_mean_motion_ddot": 0,
        "tle_line1": "1 34979U 93036AFJ 25353.98679206  .00005522  00000+0  72820-3 0  9993",
        "tle_line2": "2 34979  74.0400 253.0039 0049170 329.4569  30.3744 14.79473433883274"
      },
      "geometry": {
        "type": "Point",
        "coordinates": [
          -58.45262612003427,
          69.45111845766988
        ]
      }
    },
    {
      "type": "Feature",
      "properties": {
        "norad_id": 34990,
        "name": "COSMOS 2251 DEB",
        "group": "cosmos-2251-debris",
        "lat": -30.536218726502838,
        "lon": 66.46493827504263,
        "alt_km": 755.4486756759597,
        "timestamp": "2025-12-20T14:38:02.364780+00:00",
        "meta_object_name": "COSMOS 2251 DEB",
        "meta_object_id": "1993-036AFN",
        "meta_epoch": "2025-12-15T10:28:28.781472",
        "meta_mean_motion": 14.42382837,
        "meta_eccentricity": 0.00165597,
        "meta_inclination": 74.0457,
        "meta_ra_of_asc_node": 246.3361,
        "meta_arg_of_pericenter": 308.9911,
        "meta_mean_anomaly": 50.977,
        "meta_ephemeris_type": 0,
        "meta_classification_type": "U",
        "meta_norad_cat_id": 34990,
        "meta_element_set_no": 999,
        "meta_rev_at_epoch": 87385,
        "meta_bstar": 0.00031884459,
        "meta_mean_motion_dot": 1.029e-05,
        "meta_mean_motion_ddot": 0,
        "tle_line1": "1 34990U 93036AFN 25349.43644423  .00001029  00000+0  31884-3 0  9997",
        "tle_line2": "2 34990  74.0457 246.3361 0016559 308.9911  50.9770 14.42382837873857"
      },
      "geometry": {
        "type": "Point",
        "coordinates": [
          66.46493827504263,
          -30.536218726502838
        ]
      }
    },
    {
      "type": "Feature",
      "properties": {
        "norad_id": 34997,
        "name": "COSMOS 2251 DEB",
        "group": "cosmos-2251-debris",
        "lat": 65.27500027420939,
        "lon": 77.48048150970206,
        "alt_km": 798.6747131835664,
        "timestamp": "2025-12-20T14:38:02.364790+00:00",
        "meta_object_name": "COSMOS 2251 DEB",
        "meta_object_id": "1993-036AFV",
        "meta_epoch": "2025-12-14T03:40:01.084512",
        "meta_mean_motion": 14.45585468,
        "meta_eccentricity": 0.00977103,
        "meta_inclination": 73.8806,
        "meta_ra_of_asc_node": 308.5363,
        "meta_arg_of_pericenter": 283.3348,
        "meta_mean_anomaly": 75.6929,
        "meta_ephemeris_type": 0,
        "meta_classification_type": "U",
        "meta_norad_cat_id": 34997,
        "meta_element_set_no": 999,
        "meta_rev_at_epoch": 70767,
        "meta_bstar": 0.0019000145,
        "meta_mean_motion_dot": 7.095e-05,
        "meta_mean_motion_ddot": 0,
        "tle_line1": "1 34997U 93036AFV 25348.15279033  .00007095  00000+0  19000-2 0  9997",
        "tle_line2": "2 34997  73.8806 308.5363 0097710 283.3348  75.6929 14.45585468707674"
      },
      "geometry": {
        "type": "Point",
        "coordinates": [
          77.48048150970206,
          65.27500027420939
        ]
      }
    },
    {
      "type": "Feature",
      "properties": {
        "norad_id": 34998,
        "name": "COSMOS 2251 DEB",
        "group": "cosmos-2251-debris",
        "lat": 73.80746218588658,
        "lon": -115.72560950447085,
        "alt_km": 734.9896370677543,
        "timestamp": "2025-12-20T14:38:02.364801+00:00",
        "meta_object_name": "COSMOS 2251 DEB",
        "meta_object_id": "1993-036AFW",
        "meta_epoch": "2025-12-18T21:30:12.356640",
        "meta_mean_motion": 14.493061,
        "meta_eccentricity": 0.00213351,
        "meta_inclination": 74.0096,
        "meta_ra_of_asc_node": 148.4189,
        "meta_arg_of_pericenter": 293.0415,
        "meta_mean_anomaly": 221.403,
        "meta_ephemeris_type": 0,
        "meta_classification_type": "U",
        "meta_norad_cat_id": 34998,
        "meta_element_set_no": 999,
        "meta_rev_at_epoch": 87509,
        "meta_bstar": 0.00045734953,
        "meta_mean_motion_dot": 1.723e-05,
        "meta_mean_motion_ddot": 0,
        "tle_line1": "1 34998U 93036AFW 25352.89597635  .00001723  00000+0  45735-3 0  9992",
        "tle_line2": "2 34998  74.0096 148.4189 0021335 293.0415 221.4030 14.49306100875093"
      },
      "geometry": {
        "type": "Point",
        "coordinates": [
          -115.72560950447085,
          73.80746218588658
        ]
      }
    },
    {
      "type": "Feature",
      "properties": {
        "norad_id": 35012,
        "name": "COSMOS 2251 DEB",
        "group": "cosmos-2251-debris",
        "lat": -37.450135657239166,
        "lon": 84.37290772452242,
        "alt_km": 741.1175146169589,
        "timestamp": "2025-12-20T14:38:02.364811+00:00",
        "meta_object_name": "COSMOS 2251 DEB",
        "meta_object_id": "1993-036AFZ",
        "meta_epoch": "2025-12-17T08:45:06.225696",
        "meta_mean_motion": 14.45554969,
        "meta_eccentricity": 0.00815478,
        "meta_inclination": 74.0209,
        "meta_ra_of_asc_node": 103.105,
        "meta_arg_of_pericenter": 242.2771,
        "meta_mean_anomaly": 117.0098,
        "meta_ephemeris_type": 0,
        "meta_classification_type": "U",
        "meta_norad_cat_id": 35012,
        "meta_element_set_no": 999,
        "meta_rev_at_epoch": 87628,
        "meta_bstar": 0.00015311641,
        "meta_mean_motion_dot": 5.34e-06,
        "meta_mean_motion_ddot": 0,
        "tle_line1": "1 35012U 93036AFZ 25351.36465539  .00000534  00000+0  15312-3 0  9995",
        "tle_line2": "2 35012  74.0209 103.1050 0081547 242.2771 117.0098 14.45554969876284"
      },
      "geometry": {
        "type": "Point",
        "coordinates": [
          84.37290772452242,
          -37.450135657239166
        ]
      }
    }
  ]
}